[{"OBJECT_NAME":"OBJECT AS","OBJECT_ID":"2023-085AS","EPOCH":"2026-03-09T22:43:55.521696","MEAN_MOTION":15.33336233,"ECCENTRICITY":0.00083243,"INCLINATION":97.4812,"RA_OF_ASC_NODE":180.8852,"ARG_OF_PERICENTER":80.6036,"MEAN_ANOMALY":279.6147,"EPHEMERIS_TYPE":0,"CLASSIFICATION_TYPE":"U","NORAD_CAT_ID":57044,"ELEMENT_SET_NO":999,"REV_AT_EPOCH":15162,"BSTAR":0.00067677795,"MEAN_MOTION_DOT":0.00021782,"MEAN_MOTION_DDOT":0},{"OBJECT_NAME":"STARLINK-35590","OBJECT_ID":"2025-236Y","EPOCH":"2026-03-09T11:35:14.734752","MEAN_MOTION":15.3021397,"ECCENTRICITY":0.00012865,"INCLINATION":53.159,"RA_OF_ASC_NODE":104.78,"ARG_OF_PERICENTER":78.7866,"MEAN_ANOMALY":281.3279,"EPHEMERIS_TYPE":0,"CLASSIFICATION_TYPE":"U","NORAD_CAT_ID":66108,"ELEMENT_SET_NO":999,"REV_AT_EPOCH":2285,"BSTAR":0.0016388711,"MEAN_MOTION_DOT":0.00048518,"MEAN_MOTION_DDOT":0}]
